NORAD_CAT_ID,OBJECT_NAME,OBJECT_TYPE,EPOCH,MEAN_MOTION,ECCENTRICITY,INCLINATION,RA_OF_ASC_NODE,ARG_OF_PERICENTER,MEAN_ANOMALY,BSTAR,MEAN_MOTION_DOT,MEAN_MOTION_DDOT,TLE_LINE0,TLE_LINE1,TLE_LINE2,SEMIMAJOR_AXIS,PERIOD,APOGEE,PERIGEE,DECAYED
53027.0,STARLINK-4158,PAYLOAD,2024-06-30 03:44:55,15.08839934,0.0001381,53.2166,336.3405,71.3966,288.7176,8.1269e-05,1.006e-05,0.0,0 STARLINK-4158,1 53027U 22076AT  24182.15619996  .00001006  00000-0  81269-4 0  9994,2 53027  53.2166 336.3405 0001381  71.3966 288.7176 15.08839934110237,6917.881,95.438,540.701,538.79,0.0
53027.0,STARLINK-4158,PAYLOAD,2024-06-30 14:52:37,15.08840068,0.0001185,53.2159,334.2557,80.485,279.6276,0.00010659,1.409e-05,0.0,0 STARLINK-4158,1 53027U 22076AT  24182.61988257  .00001409  00000-0  10659-3 0  9995,2 53027  53.2159 334.2557 0001185  80.4850 279.6276 15.08840068109833,6917.88,95.438,540.565,538.925,0.0
53027.0,STARLINK-4158,PAYLOAD,2024-06-30 16:28:00,15.08841236,0.0001185,53.2162,333.9589,82.9308,277.1819,0.0002088,3.037e-05,0.0,0 STARLINK-4158,1 53027U 22076AT  24182.68612109  .00003037  00000-0  20880-3 0  9998,2 53027  53.2162 333.9589 0001185  82.9308 277.1819 15.08841236109848,6917.877,95.437,540.561,538.922,0.0
53027.0,STARLINK-4158,PAYLOAD,2024-07-01 13:08:00,15.08882135,0.000131,53.2149,330.0967,58.959,301.1531,0.0012599,0.00019843,0.0,0 STARLINK-4158,1 53027U 22076AT  24183.54722904  .00019843  00000-0  12599-2 0  9998,2 53027  53.2149 330.0967 0001310  58.9590 301.1531 15.08882135110447,6917.752,95.435,540.523,538.71,0.0
53027.0,STARLINK-4158,PAYLOAD,2024-07-01 14:43:23,15.08889496,0.0001003,53.2154,329.7983,65.9004,294.2093,0.0015544,0.0002457,0.0,0 STARLINK-4158,1 53027U 22076AT  24183.61346562  .00024570  00000-0  15544-2 0  9994,2 53027  53.2154 329.7983 0001003  65.9004 294.2093 15.08889496109982,6917.729,95.434,540.288,538.9,0.0
53027.0,STARLINK-4158,PAYLOAD,2024-07-01 16:18:47,15.08842556,0.0001521,53.2151,329.4996,75.2664,284.8497,-0.0012702,-0.00020448,0.0,0 STARLINK-4158,1 53027U 22076AT  24183.67971510 -.00020448  00000-0 -12702-2 0  9992,2 53027  53.2151 329.4996 0001521  75.2664 284.8497 15.08842556110465,6917.873,95.437,540.79,538.685,0.0
53027.0,STARLINK-4158,PAYLOAD,2024-07-02 14:34:12,15.08820971,0.0001145,53.2154,325.3382,64.8407,295.2703,0.0012028,0.00018896,0.0,0 STARLINK-4158,1 53027U 22076AT  24184.60708797  .00018896  00000-0  12028-2 0  9994,2 53027  53.2154 325.3382 0001145  64.8407 295.2703 15.08820971110130,6917.939,95.439,540.596,539.011,0.0
53027.0,STARLINK-4158,PAYLOAD,2024-07-02 16:09:35,15.08823997,0.0001033,53.2156,325.0407,81.7061,278.4049,0.0012463,0.00019594,0.0,0 STARLINK-4158,1 53027U 22076AT  24184.67332797  .00019594  00000-0  12463-2 0  9993,2 53027  53.2156 325.0407 0001033  81.7061 278.4049 15.08823997110617,6917.929,95.439,540.509,539.08,0.0
53027.0,STARLINK-4158,PAYLOAD,2024-07-03 12:49:36,15.08837296,0.0001138,53.2157,321.1725,83.0461,277.066,0.00060313,9.323e-05,0.0,0 STARLINK-4158,1 53027U 22076AT  24185.53445282  .00009323  00000-0  60313-3 0  9990,2 53027  53.2157 321.1725 0001138  83.0461 277.0660 15.08837296110748,6917.889,95.438,540.541,538.966,0.0
53027.0,STARLINK-4158,PAYLOAD,2024-07-03 16:00:22,15.08839868,0.000115,53.2159,320.5786,83.4156,276.6967,0.00060101,9.29e-05,0.0,0 STARLINK-4158,1 53027U 22076AT  24185.66693280  .00009290  00000-0  60101-3 0  9995,2 53027  53.2159 320.5786 0001150  83.4156 276.6967 15.08839868110291,6917.881,95.438,540.541,538.95,0.0
53027.0,STARLINK-4158,PAYLOAD,2024-07-04 01:32:41,15.0885801,0.0001198,53.2164,318.7935,83.5652,276.5476,0.00091686,0.00014341,0.0,0 STARLINK-4158,1 53027U 22076AT  24186.06436796  .00014341  00000-0  91686-3 0  9992,2 53027  53.2164 318.7935 0001198  83.5652 276.5476 15.08858010110829,6917.825,95.436,540.519,538.862,0.0
53027.0,STARLINK-4158,PAYLOAD,2024-07-04 12:40:23,15.08840641,0.000191,53.2177,316.7174,121.6883,238.4295,5.2386e-05,5.46e-06,0.0,0 STARLINK-4158,1 53027U 22076AT  24186.52805143  .00000546  00000-0  52386-4 0  9996,2 53027  53.2177 316.7174 0001910 121.6883 238.4295 15.08840641110892,6917.878,95.438,541.065,538.422,0.0
53027.0,STARLINK-4158,PAYLOAD,2024-07-04 14:15:46,15.08837445,0.0001321,53.2169,316.416,93.1955,266.9188,7.5757e-05,9.18e-06,0.0,0 STARLINK-4158,1 53027U 22076AT  24186.59429252  .00000918  00000-0  75757-4 0  9996,2 53027  53.2169 316.4160 0001321  93.1955 266.9188 15.08837445110439,6917.888,95.438,540.667,538.839,0.0
53027.0,STARLINK-4158,PAYLOAD,2024-07-04 15:51:09,15.08842824,0.0001409,53.2175,316.1223,106.7437,253.371,0.00021855,3.192e-05,0.0,0 STARLINK-4158,1 53027U 22076AT  24186.66053125  .00003192  00000-0  21855-3 0  9992,2 53027  53.2175 316.1223 0001409 106.7437 253.3710 15.08842824110445,6917.872,95.437,540.711,538.762,0.0
53027.0,STARLINK-4158,PAYLOAD,2024-07-05 01:23:28,15.08862086,0.0001314,53.2176,314.3363,95.8195,264.2947,0.00074886,0.00011657,0.0,0 STARLINK-4158,1 53027U 22076AT  24187.05796564  .00011657  00000-0  74886-3 0  9994,2 53027  53.2176 314.3363 0001314  95.8195 264.2947 15.08862086110978,6917.813,95.436,540.587,538.769,0.0
53027.0,STARLINK-4158,PAYLOAD,2024-07-05 12:31:10,15.08846232,0.0001215,53.217,312.2541,88.1853,271.9278,0.0011287,0.00017724,0.0,0 STARLINK-4158,1 53027U 22076AT  24187.52164953  .00017724  00000-0  11287-2 0  9993,2 53027  53.2170 312.2541 0001215  88.1853 271.9278 15.08846232111049,6917.861,95.437,540.567,538.886,0.0
53027.0,STARLINK-4158,PAYLOAD,2024-07-05 14:06:33,15.08848019,0.0001155,53.2165,311.9566,83.7155,276.3968,0.0014436,0.00022767,0.0,0 STARLINK-4158,1 53027U 22076AT  24187.58788925  .00022767  00000-0  14436-2 0  9992,2 53027  53.2165 311.9566 0001155  83.7155 276.3968 15.08848019110583,6917.856,95.437,540.52,538.922,0.0
53027.0,STARLINK-4158,PAYLOAD,2024-07-05 15:41:56,15.08849835,0.0001093,53.2162,311.6592,80.6957,279.4158,0.0017674,0.0002796,0.0,0 STARLINK-4158,1 53027U 22076AT  24187.65412892  .00027960  00000-0  17674-2 0  9994,2 53027  53.2162 311.6592 0001093  80.6957 279.4158 15.08849835110596,6917.85,95.437,540.471,538.959,0.0
53027.0,STARLINK-4158,PAYLOAD,2024-07-06 12:21:56,15.08857883,0.0001163,53.2157,307.7925,84.1335,275.9789,0.000866,0.00013528,0.0,0 STARLINK-4158,1 53027U 22076AT  24188.51523951  .00013528  00000-0  86600-3 0  9990,2 53027  53.2157 307.7925 0001163  84.1335 275.9789 15.08857883111193,6917.826,95.436,540.495,538.886,0.0
53027.0,STARLINK-4158,PAYLOAD,2024-07-06 13:57:19,15.08860123,0.0001218,53.2158,307.4956,81.2278,278.8852,0.001132,0.00017784,0.0,0 STARLINK-4158,1 53027U 22076AT  24188.58147906  .00017784  00000-0  11320-2 0  9993,2 53027  53.2158 307.4956 0001218  81.2278 278.8852 15.08860123110733,6917.819,95.436,540.526,538.841,0.0
53027.0,STARLINK-4158,PAYLOAD,2024-07-06 17:08:05,15.08867854,0.0001223,53.2159,306.9017,81.563,278.55,0.0017833,0.00028229,0.0,0 STARLINK-4158,1 53027U 22076AT  24188.71395723  .00028229  00000-0  17833-2 0  9991,2 53027  53.2159 306.9017 0001223  81.5630 278.5500 15.08867854110754,6917.795,95.436,540.506,538.814,0.0
53027.0,STARLINK-4158,PAYLOAD,2024-07-07 07:26:34,15.08820481,0.0001265,53.2163,304.2252,106.7131,253.4,-3.0054e-05,-7.66e-06,0.0,0 STARLINK-4158,1 53027U 22076AT  24189.31011887 -.00000766  00000-0 -30054-4 0  9994,2 53027  53.2163 304.2252 0001265 106.7131 253.4000 15.08820481111318,6917.94,95.439,540.68,538.93,0.0
53027.0,STARLINK-4158,PAYLOAD,2024-07-07 13:48:07,15.08822435,0.0001148,53.2159,303.0361,101.7279,258.3842,0.00095331,0.00014909,0.0,0 STARLINK-4158,1 53027U 22076AT  24189.57508309  .00014909  00000-0  95331-3 0  9992,2 53027  53.2159 303.0361 0001148 101.7279 258.3842 15.08822435110889,6917.934,95.439,540.593,539.005,0.0
53027.0,STARLINK-4158,PAYLOAD,2024-07-07 15:23:30,15.08818714,0.0001124,53.2163,302.739,102.562,257.5498,0.0011851,0.00018612,0.0,0 STARLINK-4158,1 53027U 22076AT  24189.64132441  .00018612  00000-0  11851-2 0  9999,2 53027  53.2163 302.7390 0001124 102.5620 257.5498 15.08818714111362,6917.945,95.439,540.588,539.033,0.0
53027.0,STARLINK-4158,PAYLOAD,2024-07-08 13:38:54,15.08843861,0.0001192,53.2163,298.5762,95.3558,264.757,0.0011376,0.00017865,0.0,0 STARLINK-4158,1 53027U 22076AT  24190.56869152  .00017865  00000-0  11376-2 0  9999,2 53027  53.2163 298.5762 0001192  95.3558 264.7570 15.08843861111037,6917.869,95.437,540.558,538.909,0.0
53027.0,STARLINK-4158,PAYLOAD,2024-07-09 13:29:41,15.088488,0.0001388,53.2161,294.1151,91.9483,268.1668,0.00041438,6.315e-05,0.0,0 STARLINK-4158,1 53027U 22076AT  24191.56228834  .00006315  00000-0  41438-3 0  9997,2 53027  53.2161 294.1151 0001388  91.9483 268.1668 15.08848800111657,6917.853,95.437,540.679,538.758,0.0
53027.0,STARLINK-4158,PAYLOAD,2024-07-09 16:40:27,15.08851426,0.0001413,53.2167,293.5203,91.6308,268.4846,0.0005224,8.038e-05,0.0,0 STARLINK-4158,1 53027U 22076AT  24191.69476722  .00008038  00000-0  52240-3 0  9999,2 53027  53.2167 293.5203 0001413  91.6308 268.4846 15.08851426111206,6917.845,95.437,540.688,538.733,0.0
53027.0,STARLINK-4158,PAYLOAD,2024-07-10 13:20:29,15.08834874,0.0001492,53.2152,289.65,92.9982,267.1181,-0.00016447,-2.904e-05,0.0,0 STARLINK-4158,1 53027U 22076AT  24192.55589266 -.00002904  00000-0 -16447-3 0  9990,2 53027  53.2152 289.6500 0001492  92.9982 267.1181 15.08834874111807,6917.896,95.438,540.793,538.729,0.0
53027.0,STARLINK-4158,PAYLOAD,2024-07-11 13:11:16,15.08842263,0.0001312,53.216,285.1904,93.0696,267.0446,9.8568e-05,1.281e-05,0.0,0 STARLINK-4158,1 53027U 22076AT  24193.54949246  .00001281  00000-0  98568-4 0  9998,2 53027  53.2160 285.1904 0001312  93.0696 267.0446 15.08842263111488,6917.873,95.437,540.646,538.831,0.0
53027.0,STARLINK-4158,PAYLOAD,2024-07-12 13:02:03,15.08835701,0.0001329,53.2162,280.7334,96.7544,263.36,0.00012176,1.65e-05,0.0,0 STARLINK-4158,1 53027U 22076AT  24194.54309764  .00001650  00000-0  12176-3 0  9994,2 53027  53.2162 280.7334 0001329  96.7544 263.3600 15.08835701112108,6917.894,95.438,540.678,538.839,0.0
